$$SOE
2460154.500000000, A.D. 2023-Jul-29 00:00:00.0000, -2.212006809007590E+08, -4.532556335704440E+08, 1.240016338639390E+07,
2460161.500000000, A.D. 2023-Aug-05 00:00:00.0000, -2.125166435335239E+08, -4.567758698022611E+08, 1.085451461960030E+07,
2460168.500000000, A.D. 2023-Aug-12 00:00:00.0000, -2.037520420708511E+08, -4.601228212143033E+08, 9.304749798050016E+06,
2460175.500000000, A.D. 2023-Aug-19 00:00:00.0000, -1.949099241219105E+08, -4.632945884191132E+08, 7.751444263185859E+06,
2460182.500000000, A.D. 2023-Aug-26 00:00:00.0000, -1.859933838525724E+08, -4.662893139409456E+08, 6.195178669353455E+06,
2460189.500000000, A.D. 2023-Sep-02 00:00:00.0000, -1.770055620719507E+08, -4.691051833045365E+08, 4.636538940613210E+06,
2460196.500000000, A.D. 2023-Sep-09 00:00:00.0000, -1.679496462878411E+08, -4.717404262711298E+08, 3.076116211651742E+06,
2460203.500000000, A.D. 2023-Sep-16 00:00:00.0000, -1.588288705610410E+08, -4.741933182802104E+08, 1.514506732400984E+06,
2460210.500000000, A.D. 2023-Sep-23 00:00:00.0000, -1.496465147405503E+08, -4.764621818104637E+08, -4.768827858981490E+04,
2460217.500000000, A.D. 2023-Sep-30 00:00:00.0000, -1.404059034175876E+08, -4.785453864692431E+08, -1.609862703749210E+06,
2460224.500000000, A.D. 2023-Oct-07 00:00:00.0000, -1.311104069501692E+08, -4.804413483528067E+08, -3.171405347698689E+06,
2460231.500000000, A.D. 2023-Oct-14 00:00:00.0000, -1.217634435157962E+08, -4.821485319901598E+08, -4.731699876435131E+06,
2460238.500000000, A.D. 2023-Oct-21 00:00:00.0000, -1.123684789613712E+08, -4.836654532685821E+08, -6.290125039789289E+06,
2460245.500000000, A.D. 2023-Oct-28 00:00:00.0000, -1.029290258730396E+08, -4.849906810814691E+08, -7.846054861855060E+06,
2460252.500000000, A.D. 2023-Nov-04 00:00:00.0000, -9.344864311427580E+07, -4.861228384688158E+08, -9.398858747717083E+06,
2460259.500000000, A.D. 2023-Nov-11 00:00:00.0000, -8.393093565268791E+07, -4.870606038497469E+08, -1.094790157183421E+07,
2460266.500000000, A.D. 2023-Nov-18 00:00:00.0000, -7.437955445383078E+07, -4.878027124107467E+08, -1.249254377354851E+07,
2460273.500000000, A.D. 2023-Nov-25 00:00:00.0000, -6.479819636670354E+07, -4.883479576264116E+08, -1.403214146469203E+07,
2460280.500000000, A.D. 2023-Dec-02 00:00:00.0000, -5.519060397010817E+07, -4.886951929235965E+08, -1.556604655298358E+07,
2460287.500000000, A.D. 2023-Dec-09 00:00:00.0000, -4.556056529953074E+07, -4.888433335478063E+08, -1.709360689341286E+07,
2460294.500000000, A.D. 2023-Dec-16 00:00:00.0000, -3.591191316470072E+07, -4.887913586192029E+08, -1.861416649326158E+07,
2460301.500000000, A.D. 2023-Dec-23 00:00:00.0000, -2.624852370720581E+07, -4.885383126904667E+08, -2.012706574691948E+07,
2460308.500000000, A.D. 2023-Dec-30 00:00:00.0000, -1.657431553623426E+07, -4.880833057563266E+08, -2.163164149225903E+07,
2460315.500000000, A.D. 2024-Jan-06 00:00:00.0000, -6.893251212299778E+06, -4.874255140736797E+08, -2.312722691943762E+07,
2460322.500000000, A.D. 2024-Jan-13 00:00:00.0000, 2.790662097105781E+06, -4.865641835978066E+08, -2.461315177144438E+07,
2460329.500000000, A.D. 2024-Jan-20 00:00:00.0000, 1.247337401660635E+07, -4.854986329498832E+08, -2.608874269722190E+07,
2460336.500000000, A.D. 2024-Jan-27 00:00:00.0000, 2.215079239062240E+07, -4.842282552632456E+08, -2.755332351862612E+07,
2460343.500000000, A.D. 2024-Feb-03 00:00:00.0000, 3.181878431370524E+07, -4.827525198560424E+08, -2.900621545007530E+07,
2460350.500000000, A.D. 2024-Feb-10 00:00:00.0000, 4.147317704320675E+07, -4.810709740200084E+08, -3.044673732071495E+07,
2460357.500000000, A.D. 2024-Feb-17 00:00:00.0000, 5.110975893509417E+07, -4.791832449155009E+08, -3.187420581168741E+07,
2460364.500000000, A.D. 2024-Feb-24 00:00:00.0000, 6.072428044094747E+07, -4.770890415552635E+08, -3.328793571101847E+07,
2460371.500000000, A.D. 2024-Mar-02 00:00:00.0000, 7.031245519795996E+07, -4.747881569060363E+08, -3.468724019177896E+07,
2460378.500000000, A.D. 2024-Mar-09 00:00:00.0000, 7.986996135381898E+07, -4.722804701673252E+08, -3.607143113164267E+07,
2460385.500000000, A.D. 2024-Mar-16 00:00:00.0000, 8.939244352538574E+07, -4.695659490269839E+08, -3.743981949423894E+07,
2460392.500000000, A.D. 2024-Mar-23 00:00:00.0000, 9.887551529133356E+07, -4.666446507822578E+08, -3.879171567252088E+07,
2460399.500000000, A.D. 2024-Mar-30 00:00:00.0000, 1.083147599808394E+08, -4.635167223509656E+08, -4.012642959118089E+07,
2460406.500000000, A.D. 2024-Apr-06 00:00:00.0000, 1.177057300172761E+08, -4.601824025376692E+08, -4.144327086721358E+07,
2460413.500000000, A.D. 2024-Apr-13 00:00:00.0000, 1.270439483710334E+08, -4.566420257159116E+08, -4.274154928641650E+07,
2460420.500000000, A.D. 2024-Apr-20 00:00:00.0000, 1.363249111717990E+08, -4.528960242477443E+08, -4.402057529011181E+07,
2460427.500000000, A.D. 2024-Apr-27 00:00:00.0000, 1.455440899652306E+08, -4.489449301988397E+08, -4.527966037902188E+07,
2460434.500000000, A.D. 2024-May-04 00:00:00.0000, 1.546969337038879E+08, -4.447893770484446E+08, -4.651811749992752E+07,
2460441.500000000, A.D. 2024-May-11 00:00:00.0000, 1.637788707128064E+08, -4.404301014912918E+08, -4.773526144530493E+07,
2460448.500000000, A.D. 2024-May-18 00:00:00.0000, 1.727853107136643E+08, -4.358679453047324E+08, -4.893040927162778E+07,
2460455.500000000, A.D. 2024-May-25 00:00:00.0000, 1.817116469342099E+08, -4.311038572826043E+08, -5.010288073904520E+07,
2460462.500000000, A.D. 2024-Jun-01 00:00:00.0000, 1.905532583649811E+08, -4.261388952874134E+08, -5.125199878244042E+07,
2460469.500000000, A.D. 2024-Jun-08 00:00:00.0000, 1.993055124121246E+08, -4.209742284383006E+08, -5.237709003818455E+07,
2460476.500000000, A.D. 2024-Jun-15 00:00:00.0000, 2.079637683480450E+08, -4.156111388849342E+08, -5.347748541855112E+07,
2460483.500000000, A.D. 2024-Jun-22 00:00:00.0000, 2.165233805559680E+08, -4.100510219875453E+08, -5.455252054535893E+07,
2460490.500000000, A.D. 2024-Jun-29 00:00:00.0000, 2.249796994469945E+08, -4.042953867180247E+08, -5.560153599665859E+07,
2460497.500000000, A.D. 2024-Jul-06 00:00:00.0000, 2.333280726948470E+08, -3.983458587457991E+08, -5.662387781050366E+07,
2460504.500000000, A.D. 2024-Jul-13 00:00:00.0000, 2.415638487384579E+08, -3.922041833775793E+08, -5.761889819341756E+07,
2460511.500000000, A.D. 2024-Jul-20 00:00:00.0000, 2.496823805672367E+08, -3.858722271962422E+08, -5.858595615719843E+07,
2460518.500000000, A.D. 2024-Jul-27 00:00:00.0000, 2.576790291327323E+08, -3.793519793517084E+08, -5.952441810184808E+07,
2460525.500000000, A.D. 2024-Aug-03 00:00:00.0000, 2.655491666590499E+08, -3.726455528714713E+08, -6.043365839978468E+07,
2460532.500000000, A.D. 2024-Aug-10 00:00:00.0000, 2.732881800171006E+08, -3.657551859875858E+08, -6.131305999640742E+07,
2460539.500000000, A.D. 2024-Aug-17 00:00:00.0000, 2.808914742091019E+08, -3.586832434505595E+08, -6.216201502912225E+07,
2460546.500000000, A.D. 2024-Aug-24 00:00:00.0000, 2.883544759898829E+08, -3.514322178443322E+08, -6.297992546878795E+07,
2460553.500000000, A.D. 2024-Aug-31 00:00:00.0000, 2.956726377391682E+08, -3.440047309554788E+08, -6.376620379882778E+07,
2460560.500000000, A.D. 2024-Sep-07 00:00:00.0000, 3.028414419491750E+08, -3.364035350622593E+08, -6.452027375493388E+07,
2460567.500000000, A.D. 2024-Sep-14 00:00:00.0000, 3.098564064115891E+08, -3.286315131409063E+08, -6.524157105165268E+07,
2460574.500000000, A.D. 2024-Sep-21 00:00:00.0000, 3.167130880725123E+08, -3.206916775706802E+08, -6.592954387579620E+07,
2460581.500000000, A.D. 2024-Sep-28 00:00:00.0000, 3.234070850632253E+08, -3.125871705580928E+08, -6.658365336501569E+07,
2460588.500000000, A.D. 2024-Oct-05 00:00:00.0000, 3.299340405716058E+08, -3.043212662697960E+08, -6.720337440698104E+07,
2460595.500000000, A.D. 2024-Oct-12 00:00:00.0000, 3.362896481896375E+08, -2.958973716861194E+08, -6.778819648165192E+07,
2460602.500000000, A.D. 2024-Oct-19 00:00:00.0000, 3.424696569816165E+08, -2.873190264392639E+08, -6.833762440726124E+07,
2460609.500000000, A.D. 2024-Oct-26 00:00:00.0000, 3.484698762349554E+08, -2.785899024307964E+08, -6.885117905139008E+07,
2460616.500000000, A.D. 2024-Nov-02 00:00:00.0000, 3.542861801439938E+08, -2.697138033698667E+08, -6.932839804142046E+07,
2460623.500000000, A.D. 2024-Nov-09 00:00:00.0000, 3.599145125153282E+08, -2.606946642040622E+08, -6.976883647974055E+07,
2460630.500000000, A.D. 2024-Nov-16 00:00:00.0000, 3.653508915116415E+08, -2.515365504346181E+08, -7.017206766395721E+07,
2460637.500000000, A.D. 2024-Nov-23 00:00:00.0000, 3.705914144718087E+08, -2.422436573572437E+08, -7.053768381827345E+07,
2460644.500000000, A.D. 2024-Nov-30 00:00:00.0000, 3.756322630069713E+08, -2.328203092623807E+08, -7.086529685653830E+07,
2460651.500000000, A.D. 2024-Dec-07 00:00:00.0000, 3.804697087849122E+08, -2.232709581663972E+08, -7.115453917941953E+07,
2460658.500000000, A.D. 2024-Dec-14 00:00:00.0000, 3.851001193082255E+08, -2.136001808448154E+08, -7.140506434142390E+07,
2460665.500000000, A.D. 2024-Dec-21 00:00:00.0000, 3.895199613599846E+08, -2.038126754062674E+08, -7.161654747538298E+07,
2460672.500000000, A.D. 2024-Dec-28 00:00:00.0000, 3.937258040776460E+08, -1.939132603716335E+08, -7.178868589584339E+07,
2460679.500000000, A.D. 2025-Jan-04 00:00:00.0000, 3.977143242397438E+08, -1.839068738775277E+08, -7.192119992289993E+07,
2460686.500000000, A.D. 2025-Jan-11 00:00:00.0000, 4.014823119325403E+08, -1.737985713403422E+08, -7.201383362142125E+07,
2460693.500000000, A.D. 2025-Jan-18 00:00:00.0000, 4.050266756679686E+08, -1.635935224968233E+08, -7.206635544433175E+07,
2460700.500000000, A.D. 2025-Jan-25 00:00:00.0000, 4.083444471840164E+08, -1.532970082934523E+08, -7.207855883867648E+07,
2460707.500000000, A.D. 2025-Feb-01 00:00:00.0000, 4.114327861043822E+08, -1.429144176530973E+08, -7.205026283190998E+07,
2460714.500000000, A.D. 2025-Feb-08 00:00:00.0000, 4.142889845029768E+08, -1.324512440984178E+08, -7.198131259981154E+07,
$$EOE